<?xml version="1.0" encoding="UTF-8"?>
<ndm xmlns:xsi="http://www.w3.org/2001/XMLSchema-instance" xsi:noNamespaceSchemaLocation="https://sanaregistry.org/r/ndmxml_unqualified/ndmxml-2.0.0-master-2.0.xsd">
<omm id="CCSDS_OMM_VERS" version="2.0">
<header><CREATION_DATE/><ORIGINATOR/></header><body><segment><metadata><OBJECT_NAME>KUIPER-00035</OBJECT_NAME><OBJECT_ID>2025-088AA</OBJECT_ID><CENTER_NAME>EARTH</CENTER_NAME><REF_FRAME>TEME</REF_FRAME><TIME_SYSTEM>UTC</TIME_SYSTEM><MEAN_ELEMENT_THEORY>SGP4</MEAN_ELEMENT_THEORY></metadata><data><meanElements><EPOCH>2025-07-22T20:28:01.216704</EPOCH><MEAN_MOTION>15.13307224</MEAN_MOTION><ECCENTRICITY>.0004432</ECCENTRICITY><INCLINATION>51.8804</INCLINATION><RA_OF_ASC_NODE>53.2958</RA_OF_ASC_NODE><ARG_OF_PERICENTER>78.1724</ARG_OF_PERICENTER><MEAN_ANOMALY>281.9749</MEAN_ANOMALY></meanElements><tleParameters><EPHEMERIS_TYPE>0</EPHEMERIS_TYPE><CLASSIFICATION_TYPE>U</CLASSIFICATION_TYPE><NORAD_CAT_ID>63748</NORAD_CAT_ID><ELEMENT_SET_NO>999</ELEMENT_SET_NO><REV_AT_EPOCH>1343</REV_AT_EPOCH><BSTAR>-.10659E-1</BSTAR><MEAN_MOTION_DOT>-.18759E-2</MEAN_MOTION_DOT><MEAN_MOTION_DDOT>0</MEAN_MOTION_DDOT></tleParameters></data></segment></body></omm>
<omm id="CCSDS_OMM_VERS" version="2.0">
<header><CREATION_DATE/><ORIGINATOR/></header><body><segment><metadata><OBJECT_NAME>KUIPER-00037</OBJECT_NAME><OBJECT_ID>2025-088AB</OBJECT_ID><CENTER_NAME>EARTH</CENTER_NAME><REF_FRAME>TEME</REF_FRAME><TIME_SYSTEM>UTC</TIME_SYSTEM><MEAN_ELEMENT_THEORY>SGP4</MEAN_ELEMENT_THEORY></metadata><data><meanElements><EPOCH>2025-07-22T19:29:07.630368</EPOCH><MEAN_MOTION>15.14537109</MEAN_MOTION><ECCENTRICITY>.0003117</ECCENTRICITY><INCLINATION>51.8835</INCLINATION><RA_OF_ASC_NODE>52.9152</RA_OF_ASC_NODE><ARG_OF_PERICENTER>359.1160</ARG_OF_PERICENTER><MEAN_ANOMALY>0.9811</MEAN_ANOMALY></meanElements><tleParameters><EPHEMERIS_TYPE>0</EPHEMERIS_TYPE><CLASSIFICATION_TYPE>U</CLASSIFICATION_TYPE><NORAD_CAT_ID>63749</NORAD_CAT_ID><ELEMENT_SET_NO>999</ELEMENT_SET_NO><REV_AT_EPOCH>1422</REV_AT_EPOCH><BSTAR>-.13828E-1</BSTAR><MEAN_MOTION_DOT>-.249672E-2</MEAN_MOTION_DOT><MEAN_MOTION_DDOT>0</MEAN_MOTION_DDOT></tleParameters></data></segment></body></omm>
<omm id="CCSDS_OMM_VERS" version="2.0">
<header><CREATION_DATE/><ORIGINATOR/></header><body><segment><metadata><OBJECT_NAME>KUIPER-00038</OBJECT_NAME><OBJECT_ID>2025-088AC</OBJECT_ID><CENTER_NAME>EARTH</CENTER_NAME><REF_FRAME>TEME</REF_FRAME><TIME_SYSTEM>UTC</TIME_SYSTEM><MEAN_ELEMENT_THEORY>SGP4</MEAN_ELEMENT_THEORY></metadata><data><meanElements><EPOCH>2025-07-22T13:34:12.384768</EPOCH><MEAN_MOTION>15.37679563</MEAN_MOTION><ECCENTRICITY>.0004769</ECCENTRICITY><INCLINATION>51.8719</INCLINATION><RA_OF_ASC_NODE>49.1668</RA_OF_ASC_NODE><ARG_OF_PERICENTER>60.3868</ARG_OF_PERICENTER><MEAN_ANOMALY>299.7593</MEAN_ANOMALY></meanElements><tleParameters><EPHEMERIS_TYPE>0</EPHEMERIS_TYPE><CLASSIFICATION_TYPE>U</CLASSIFICATION_TYPE><NORAD_CAT_ID>63750</NORAD_CAT_ID><ELEMENT_SET_NO>999</ELEMENT_SET_NO><REV_AT_EPOCH>1325</REV_AT_EPOCH><BSTAR>.38111E-3</BSTAR><MEAN_MOTION_DOT>.13958E-3</MEAN_MOTION_DOT><MEAN_MOTION_DDOT>0</MEAN_MOTION_DDOT></tleParameters></data></segment></body></omm>
<omm id="CCSDS_OMM_VERS" version="2.0">
<header><CREATION_DATE/><ORIGINATOR/></header><body><segment><metadata><OBJECT_NAME>KUIPER-00039</OBJECT_NAME><OBJECT_ID>2025-134A</OBJECT_ID><CENTER_NAME>EARTH</CENTER_NAME><REF_FRAME>TEME</REF_FRAME><TIME_SYSTEM>UTC</TIME_SYSTEM><MEAN_ELEMENT_THEORY>SGP4</MEAN_ELEMENT_THEORY></metadata><data><meanElements><EPOCH>2025-07-22T05:38:05.686656</EPOCH><MEAN_MOTION>15.34879729</MEAN_MOTION><ECCENTRICITY>.0007198</ECCENTRICITY><INCLINATION>51.8678</INCLINATION><RA_OF_ASC_NODE>192.3540</RA_OF_ASC_NODE><ARG_OF_PERICENTER>214.5807</ARG_OF_PERICENTER><MEAN_ANOMALY>145.4711</MEAN_ANOMALY></meanElements><tleParameters><EPHEMERIS_TYPE>0</EPHEMERIS_TYPE><CLASSIFICATION_TYPE>U</CLASSIFICATION_TYPE><NORAD_CAT_ID>64500</NORAD_CAT_ID><ELEMENT_SET_NO>999</ELEMENT_SET_NO><REV_AT_EPOCH>566</REV_AT_EPOCH><BSTAR>.6803E-3</BSTAR><MEAN_MOTION_DOT>.23068E-3</MEAN_MOTION_DOT><MEAN_MOTION_DDOT>0</MEAN_MOTION_DDOT></tleParameters></data></segment></body></omm>
<omm id="CCSDS_OMM_VERS" version="2.0">
<header><CREATION_DATE/><ORIGINATOR/></header><body><segment><metadata><OBJECT_NAME>KUIPER-00040</OBJECT_NAME><OBJECT_ID>2025-134B</OBJECT_ID><CENTER_NAME>EARTH</CENTER_NAME><REF_FRAME>TEME</REF_FRAME><TIME_SYSTEM>UTC</TIME_SYSTEM><MEAN_ELEMENT_THEORY>SGP4</MEAN_ELEMENT_THEORY></metadata><data><meanElements><EPOCH>2025-07-22T20:00:01.999872</EPOCH><MEAN_MOTION>15.28359352</MEAN_MOTION><ECCENTRICITY>.001134</ECCENTRICITY><INCLINATION>51.8669</INCLINATION><RA_OF_ASC_NODE>189.8053</RA_OF_ASC_NODE><ARG_OF_PERICENTER>232.5131</ARG_OF_PERICENTER><MEAN_ANOMALY>41.4086</MEAN_ANOMALY></meanElements><tleParameters><EPHEMERIS_TYPE>0</EPHEMERIS_TYPE><CLASSIFICATION_TYPE>U</CLASSIFICATION_TYPE><NORAD_CAT_ID>64501</NORAD_CAT_ID><ELEMENT_SET_NO>999</ELEMENT_SET_NO><REV_AT_EPOCH>528</REV_AT_EPOCH><BSTAR>-.14268E-1</BSTAR><MEAN_MOTION_DOT>-.381273E-2</MEAN_MOTION_DOT><MEAN_MOTION_DDOT>0</MEAN_MOTION_DDOT></tleParameters></data></segment></body></omm>
<omm id="CCSDS_OMM_VERS" version="2.0">
<header><CREATION_DATE/><ORIGINATOR/></header><body><segment><metadata><OBJECT_NAME>KUIPER-00041</OBJECT_NAME><OBJECT_ID>2025-134C</OBJECT_ID><CENTER_NAME>EARTH</CENTER_NAME><REF_FRAME>TEME</REF_FRAME><TIME_SYSTEM>UTC</TIME_SYSTEM><MEAN_ELEMENT_THEORY>SGP4</MEAN_ELEMENT_THEORY></metadata><data><meanElements><EPOCH>2025-07-22T20:00:01.999872</EPOCH><MEAN_MOTION>15.24960243</MEAN_MOTION><ECCENTRICITY>.000857</ECCENTRICITY><INCLINATION>51.8701</INCLINATION><RA_OF_ASC_NODE>189.8463</RA_OF_ASC_NODE><ARG_OF_PERICENTER>224.3034</ARG_OF_PERICENTER><MEAN_ANOMALY>359.1753</MEAN_ANOMALY></meanElements><tleParameters><EPHEMERIS_TYPE>0</EPHEMERIS_TYPE><CLASSIFICATION_TYPE>U</CLASSIFICATION_TYPE><NORAD_CAT_ID>64502</NORAD_CAT_ID><ELEMENT_SET_NO>999</ELEMENT_SET_NO><REV_AT_EPOCH>528</REV_AT_EPOCH><BSTAR>-.64939E-1</BSTAR><MEAN_MOTION_DOT>-.1504074E-1</MEAN_MOTION_DOT><MEAN_MOTION_DDOT>0</MEAN_MOTION_DDOT></tleParameters></data></segment></body></omm>
<omm id="CCSDS_OMM_VERS" version="2.0">
<header><CREATION_DATE/><ORIGINATOR/></header><body><segment><metadata><OBJECT_NAME>KUIPER-00042</OBJECT_NAME><OBJECT_ID>2025-134D</OBJECT_ID><CENTER_NAME>EARTH</CENTER_NAME><REF_FRAME>TEME</REF_FRAME><TIME_SYSTEM>UTC</TIME_SYSTEM><MEAN_ELEMENT_THEORY>SGP4</MEAN_ELEMENT_THEORY></metadata><data><meanElements><EPOCH>2025-07-22T18:16:21.780480</EPOCH><MEAN_MOTION>15.34564776</MEAN_MOTION><ECCENTRICITY>.0008614</ECCENTRICITY><INCLINATION>51.8646</INCLINATION><RA_OF_ASC_NODE>189.8749</RA_OF_ASC_NODE><ARG_OF_PERICENTER>221.4595</ARG_OF_PERICENTER><MEAN_ANOMALY>138.5737</MEAN_ANOMALY></meanElements><tleParameters><EPHEMERIS_TYPE>0</EPHEMERIS_TYPE><CLASSIFICATION_TYPE>U</CLASSIFICATION_TYPE><NORAD_CAT_ID>64503</NORAD_CAT_ID><ELEMENT_SET_NO>999</ELEMENT_SET_NO><REV_AT_EPOCH>528</REV_AT_EPOCH><BSTAR>.11053E-3</BSTAR><MEAN_MOTION_DOT>.338E-4</MEAN_MOTION_DOT><MEAN_MOTION_DDOT>0</MEAN_MOTION_DDOT></tleParameters></data></segment></body></omm>
<omm id="CCSDS_OMM_VERS" version="2.0">
<header><CREATION_DATE/><ORIGINATOR/></header><body><segment><metadata><OBJECT_NAME>KUIPER-00043</OBJECT_NAME><OBJECT_ID>2025-134E</OBJECT_ID><CENTER_NAME>EARTH</CENTER_NAME><REF_FRAME>TEME</REF_FRAME><TIME_SYSTEM>UTC</TIME_SYSTEM><MEAN_ELEMENT_THEORY>SGP4</MEAN_ELEMENT_THEORY></metadata><data><meanElements><EPOCH>2025-07-22T16:36:31.041216</EPOCH><MEAN_MOTION>15.34793556</MEAN_MOTION><ECCENTRICITY>.0007866</ECCENTRICITY><INCLINATION>51.8671</INCLINATION><RA_OF_ASC_NODE>190.1674</RA_OF_ASC_NODE><ARG_OF_PERICENTER>211.5251</ARG_OF_PERICENTER><MEAN_ANOMALY>148.5264</MEAN_ANOMALY></meanElements><tleParameters><EPHEMERIS_TYPE>0</EPHEMERIS_TYPE><CLASSIFICATION_TYPE>U</CLASSIFICATION_TYPE><NORAD_CAT_ID>64504</NORAD_CAT_ID><ELEMENT_SET_NO>999</ELEMENT_SET_NO><REV_AT_EPOCH>565</REV_AT_EPOCH><BSTAR>.54259E-3</BSTAR><MEAN_MOTION_DOT>.1826E-3</MEAN_MOTION_DOT><MEAN_MOTION_DDOT>0</MEAN_MOTION_DDOT></tleParameters></data></segment></body></omm>

</ndm>
