KUIPER-00035            
1 63748U 25088AA  25203.85279186 -.00187590  00000+0 -10659-1 0  9992
2 63748  51.8804  53.2958 0004432  78.1724 281.9749 15.13307224 13439
KUIPER-00037            
1 63749U 25088AB  25203.81189387 -.00249672  00000+0 -13828-1 0  9993
2 63749  51.8835  52.9152 0003117 359.1160   0.9811 15.14537109 14226
KUIPER-00038            
1 63750U 25088AC  25203.56542112  .00013958  00000+0  38111-3 0  9994
2 63750  51.8719  49.1668 0004769  60.3868 299.7593 15.37679563 13252
KUIPER-00039            
1 64500U 25134A   25203.23478804  .00023068  00000+0  68030-3 0  9996
2 64500  51.8678 192.3540 0007198 214.5807 145.4711 15.34879729  5663
KUIPER-00040            
1 64501U 25134B   25203.83335648 -.00381273  00000+0 -14268-1 0  9990
2 64501  51.8669 189.8053 0011340 232.5131  41.4086 15.28359352  5284
KUIPER-00041            
1 64502U 25134C   25203.83335648 -.01504074  00000+0 -64939-1 0  9998
2 64502  51.8701 189.8463 0008570 224.3034 359.1753 15.24960243  5282
KUIPER-00042            
1 64503U 25134D   25203.76136320  .00003380  00000+0  11053-3 0  9999
2 64503  51.8646 189.8749 0008614 221.4595 138.5737 15.34564776  5280
KUIPER-00043            
1 64504U 25134E   25203.69202594  .00018260  00000+0  54259-3 0  9997
2 64504  51.8671 190.1674 0007866 211.5251 148.5264 15.34793556  5655
